NORAD_CAT_ID,OBJECT_NAME,OBJECT_TYPE,EPOCH,MEAN_MOTION,ECCENTRICITY,INCLINATION,RA_OF_ASC_NODE,ARG_OF_PERICENTER,MEAN_ANOMALY,BSTAR,MEAN_MOTION_DOT,MEAN_MOTION_DDOT,TLE_LINE0,TLE_LINE1,TLE_LINE2,SEMIMAJOR_AXIS,PERIOD,APOGEE,PERIGEE,DECAYED
55405.0,STARLINK-5623,PAYLOAD,2023-06-04 22:17:53,15.69925432,0.0003413,69.9996,100.3744,264.768,95.3126,7.6596e-06,7.08e-06,0.0,0 STARLINK-5623,1 55405U 23014Q   23155.92909025  .00000708  00000-0  76596-5 0  9994,2 55405  69.9996 100.3744 0003413 264.7680  95.3126 15.69925432 20646,6737.247,91.724,361.412,356.813,0.0
55405.0,STARLINK-5623,PAYLOAD,2023-06-05 04:24:53,15.6993385,0.0003281,69.9989,99.6607,261.1094,98.973,2.0211e-05,2.219e-05,0.0,0 STARLINK-5623,1 55405U 23014Q   23156.18395060  .00002219  00000-0  20211-4 0  9992,2 55405  69.9989  99.6607 0003281 261.1094  98.9730 15.69933850 19741,6737.223,91.724,361.299,356.878,0.0
55405.0,STARLINK-5623,PAYLOAD,2023-06-05 05:56:40,15.69909355,0.0002919,69.9988,99.4818,260.9031,99.1834,-7.7162e-06,-1.139e-05,0.0,0 STARLINK-5623,1 55405U 23014Q   23156.24768777 -.00001139  00000-0 -77162-5 0  9998,2 55405  69.9988  99.4818 0002919 260.9031  99.1834 15.69909355 19759,6737.293,91.725,361.125,357.192,0.0
55405.0,STARLINK-5623,PAYLOAD,2023-06-05 19:42:26,15.69915883,0.0003148,69.998,97.8665,263.29,96.7937,-5.4816e-06,-8.71e-06,0.0,0 STARLINK-5623,1 55405U 23014Q   23156.82113672 -.00000871  00000-0 -54816-5 0  9993,2 55405  69.9980  97.8665 0003148 263.2900  96.7937 15.69915883 20784,6737.275,91.725,361.261,357.019,0.0
55405.0,STARLINK-5623,PAYLOAD,2023-06-05 22:45:55,15.69922304,0.0003305,69.9978,97.5078,263.6504,96.4315,3.5193e-07,-1.7e-06,0.0,0 STARLINK-5623,1 55405U 23014Q   23156.94856295 -.00000170  00000-0  35193-6 0  9990,2 55405  69.9978  97.5078 0003305 263.6504  96.4315 15.69922304 19865,6737.256,91.724,361.348,356.895,0.0
55405.0,STARLINK-5623,PAYLOAD,2023-06-06 06:24:41,15.69928381,0.0003189,69.9979,96.6131,262.911,97.1723,7.1577e-06,6.48e-06,0.0,0 STARLINK-5623,1 55405U 23014Q   23157.26714138  .00000648  00000-0  71577-5 0  9999,2 55405  69.9979  96.6131 0003189 262.9110  97.1723 15.69928381 19919,6737.239,91.724,361.252,356.955,0.0
55405.0,STARLINK-5623,PAYLOAD,2023-06-06 23:13:57,15.69923022,0.0003175,69.9978,94.6415,261.8399,98.2437,1.2388e-05,1.277e-05,0.0,0 STARLINK-5623,1 55405U 23014Q   23157.96802747  .00001277  00000-0  12388-4 0  9993,2 55405  69.9978  94.6415 0003175 261.8399  98.2437 15.69923022 20028,6737.254,91.724,361.258,356.98,0.0
55405.0,STARLINK-5623,PAYLOAD,2023-06-07 20:38:29,15.69926241,0.0003178,69.9968,92.1322,263.5815,96.5019,8.2847e-06,7.84e-06,0.0,0 STARLINK-5623,1 55405U 23014Q   23158.86006128  .00000784  00000-0  82847-5 0  9992,2 55405  69.9968  92.1322 0003178 263.5815  96.5019 15.69926241 21105,6737.245,91.724,361.251,356.969,0.0
55405.0,STARLINK-5623,PAYLOAD,2023-06-07 23:41:59,15.6992835,0.0003144,69.9972,91.7738,264.5085,95.5752,1.0559e-05,1.057e-05,0.0,0 STARLINK-5623,1 55405U 23014Q   23158.98749265  .00001057  00000-0  10559-4 0  9995,2 55405  69.9972  91.7738 0003144 264.5085  95.5752 15.69928350 20182,6737.239,91.724,361.222,356.986,0.0
55405.0,STARLINK-5623,PAYLOAD,2023-06-08 05:48:59,15.6992896,0.0003303,69.9977,91.0582,263.0175,97.0645,8.8009e-06,8.46e-06,0.0,0 STARLINK-5623,1 55405U 23014Q   23159.24235827  .00000846  00000-0  88009-5 0  9990,2 55405  69.9977  91.0582 0003303 263.0175  97.0645 15.69928960 21162,6737.237,91.724,361.328,356.877,0.0
55405.0,STARLINK-5623,PAYLOAD,2023-06-08 22:38:16,15.69918284,0.0002929,69.9989,89.089,256.5917,103.4953,2.3394e-06,6.9e-07,0.0,0 STARLINK-5623,1 55405U 23014Q   23159.94325174  .00000069  00000-0  23394-5 0  9995,2 55405  69.9989  89.0890 0002929 256.5917 103.4953 15.69918284 20338,6737.268,91.725,361.106,357.159,0.0
55405.0,STARLINK-5623,PAYLOAD,2023-06-09 12:24:02,15.69923622,0.0002747,69.9992,87.477,270.425,89.6631,2.0311e-05,2.23e-05,0.0,0 STARLINK-5623,1 55405U 23014Q   23160.51669759  .00002230  00000-0  20311-4 0  9997,2 55405  69.9992  87.4770 0002747 270.4250  89.6631 15.69923622 21368,6737.253,91.724,360.968,357.267,0.0
55405.0,STARLINK-5623,PAYLOAD,2023-06-10 06:45:03,15.6992964,0.0003303,69.9986,85.3274,264.2878,95.7941,4.1661e-06,2.88e-06,0.0,0 STARLINK-5623,1 55405U 23014Q   23161.28129463  .00000288  00000-0  41661-5 0  9998,2 55405  69.9986  85.3274 0003303 264.2878  95.7941 15.69929640 21484,6737.235,91.724,361.326,356.875,0.0
55405.0,STARLINK-5623,PAYLOAD,2023-06-10 20:30:50,15.69921897,0.0003309,69.9973,83.716,262.8466,97.2353,4.1743e-06,2.89e-06,0.0,0 STARLINK-5623,1 55405U 23014Q   23161.85475148  .00000289  00000-0  41743-5 0  9997,2 55405  69.9973  83.7160 0003309 262.8466  97.2353 15.69921897 21579,6737.257,91.724,361.352,356.893,0.0
55405.0,STARLINK-5623,PAYLOAD,2023-06-11 01:06:05,15.6992822,0.000325,69.9982,83.1798,261.8397,98.243,1.4576e-05,1.54e-05,0.0,0 STARLINK-5623,1 55405U 23014Q   23162.04589583  .00001540  00000-0  14576-4 0  9992,2 55405  69.9982  83.1798 0003250 261.8397  98.2430 15.69928220 20660,6737.239,91.724,361.294,356.915,0.0
55405.0,STARLINK-5623,PAYLOAD,2023-06-11 11:48:21,15.69923919,0.0003329,69.9982,81.925,262.3189,97.7629,9.641e-06,9.47e-06,0.0,0 STARLINK-5623,1 55405U 23014Q   23162.49191693  .00000947  00000-0  96410-5 0  9990,2 55405  69.9982  81.9250 0003329 262.3189  97.7629 15.69923919 21677,6737.252,91.724,361.359,356.874,0.0
55405.0,STARLINK-5623,PAYLOAD,2023-06-11 20:58:52,15.69920776,0.0003538,69.9984,80.85,261.3645,98.715,1.0199e-05,1.013e-05,0.0,0 STARLINK-5623,1 55405U 23014Q   23162.87421804  .00001013  00000-0  10199-4 0  9996,2 55405  69.9984  80.8500 0003538 261.3645  98.7150 15.69920776 21738,6737.261,91.724,361.509,356.742,0.0
55405.0,STARLINK-5623,PAYLOAD,2023-06-11 22:30:37,15.69920663,0.0003559,69.9979,80.6707,261.7441,98.3351,1.0296e-05,1.025e-05,0.0,0 STARLINK-5623,1 55405U 23014Q   23162.93793463  .00001025  00000-0  10296-4 0  9997,2 55405  69.9979  80.6707 0003559 261.7441  98.3351 15.69920663 21745,6737.261,91.724,361.524,356.728,0.0
55405.0,STARLINK-5623,PAYLOAD,2023-06-12 04:37:38,15.6991321,0.0002999,69.9981,79.9533,277.3961,82.6894,-9.1862e-06,-1.316e-05,0.0,0 STARLINK-5623,1 55405U 23014Q   23163.19280995 -.00001316  00000-0 -91862-5 0  9991,2 55405  69.9981  79.9533 0002999 277.3961  82.6894 15.69913210 20841,6737.282,91.725,361.168,357.127,0.0
55405.0,STARLINK-5623,PAYLOAD,2023-06-13 00:30:24,15.69921908,0.0003741,69.9979,77.6239,265.0319,95.0449,-1.2834e-06,-3.67e-06,0.0,0 STARLINK-5623,1 55405U 23014Q   23164.02112047 -.00000367  00000-0 -12834-5 0  9993,2 55405  69.9979  77.6239 0003741 265.0319  95.0449 15.69921908 20974,6737.257,91.724,361.643,356.602,0.0
55405.0,STARLINK-5623,PAYLOAD,2023-06-13 03:33:54,15.69930388,0.0003363,69.998,77.2654,261.2817,98.7998,9.1451e-06,8.87e-06,0.0,0 STARLINK-5623,1 55405U 23014Q   23164.14854732  .00000887  00000-0  91451-5 0  9997,2 55405  69.9980  77.2654 0003363 261.2817  98.7998 15.69930388 20997,6737.233,91.724,361.364,356.832,0.0
55405.0,STARLINK-5623,PAYLOAD,2023-06-14 04:01:57,15.69921742,0.0003267,69.9982,74.3989,260.8148,99.2678,3.8471e-06,2.5e-06,0.0,0 STARLINK-5623,1 55405U 23014Q   23165.16802230  .00000250  00000-0  38471-5 0  9993,2 55405  69.9982  74.3989 0003267 260.8148  99.2678 15.69921742 21157,6737.258,91.724,361.324,356.922,0.0
55405.0,STARLINK-5623,PAYLOAD,2023-06-14 13:12:27,15.69919998,0.0003476,69.9975,73.3225,262.546,97.5341,1.6375e-05,1.756e-05,0.0,0 STARLINK-5623,1 55405U 23014Q   23165.55032065  .00001756  00000-0  16375-4 0  9997,2 55405  69.9975  73.3225 0003476 262.5460  97.5341 15.69919998 22158,6737.263,91.724,361.47,356.786,0.0
55405.0,STARLINK-5623,PAYLOAD,2023-06-15 02:58:13,15.69922284,0.0003101,70.0001,71.7133,252.1222,107.9635,2.0182e-05,2.214e-05,0.0,0 STARLINK-5623,1 55405U 23014Q   23166.12377006  .00002214  00000-0  20182-4 0  9999,2 55405  70.0001  71.7133 0003101 252.1222 107.9635 15.69922284 22241,6737.256,91.724,361.211,357.032,0.0
55405.0,STARLINK-5623,PAYLOAD,2023-06-16 00:22:44,15.69947792,0.0003282,69.998,69.2053,258.9278,101.1548,-2.6252e-06,-5.29e-06,0.0,0 STARLINK-5623,1 55405U 23014Q   23167.01579164 -.00000529  00000-0 -26252-5 0  9991,2 55405  69.9980  69.2053 0003282 258.9278 101.1548 15.69947792 21443,6737.183,91.723,361.26,356.837,0.0
55405.0,STARLINK-5623,PAYLOAD,2023-06-16 11:05:01,15.69931589,0.0003165,69.997,67.9505,265.5155,94.5679,-1.7139e-06,-4.19e-06,0.0,0 STARLINK-5623,1 55405U 23014Q   23167.46181849 -.00000419  00000-0 -17139-5 0  9991,2 55405  69.9970  67.9505 0003165 265.5155  94.5679 15.69931589 21512,6737.23,91.724,361.227,356.962,0.0
55405.0,STARLINK-5623,PAYLOAD,2023-06-16 23:19:06,15.69807826,0.0002996,69.9978,66.5179,272.0458,88.0394,0.00023337,0.00027805,0.0,0 STARLINK-5623,1 55405U 23014Q   23167.97159985  .00027805  00000-0  23337-3 0  9994,2 55405  69.9978  66.5179 0002996 272.0458  88.0394 15.69807826 21598,6737.584,91.731,361.467,357.43,0.0
55405.0,STARLINK-5623,PAYLOAD,2023-06-17 03:54:19,15.69891965,0.0003591,69.9977,65.9799,261.4562,98.6227,-2.3449e-05,-3.028e-05,0.0,0 STARLINK-5623,1 55405U 23014Q   23168.16272961 -.00003028  00000-0 -23449-4 0  9994,2 55405  69.9977  65.9799 0003591 261.4562  98.6227 15.69891965 21621,6737.343,91.726,361.627,356.789,0.0
55405.0,STARLINK-5623,PAYLOAD,2023-06-17 16:08:19,15.69923363,0.000318,69.9976,64.5467,262.6031,97.4803,-7.2135e-06,-1.08e-05,0.0,0 STARLINK-5623,1 55405U 23014Q   23168.67244682 -.00001080  00000-0 -72135-5 0  9992,2 55405  69.9976  64.5467 0003180 262.6031  97.4803 15.69923363 21709,6737.253,91.724,361.261,356.976,0.0
55405.0,STARLINK-5623,PAYLOAD,2023-06-17 20:43:34,15.69924292,0.0003014,69.9975,64.0092,273.7533,86.3318,-5.025e-06,-8.17e-06,0.0,0 STARLINK-5623,1 55405U 23014Q   23168.86359714 -.00000817  00000-0 -50250-5 0  9997,2 55405  69.9975  64.0092 0003014 273.7533  86.3318 15.69924292 22670,6737.251,91.724,361.146,357.085,0.0
